STARLINK-37217          
1 68335U 26059Q   26157.54776960  .00073813  00000+0  13213-2 0  9995
2 68335  53.1574 289.5850 0000953  89.4696 270.6422 15.49338437 11864
STARLINK-37143          
1 68336U 26059R   26157.63872511  .00033884  00000+0  11496-2 0  9990
2 68336  53.1598 295.1428 0002053  80.8525 279.2708 15.30237317 11793
STARLINK-36237          
1 68337U 26059S   26153.69226071  .00044033  00000+0  12414-2 0  9996
2 68337  53.1601 308.8895 0001646 302.4182  57.6662 15.36011178 11257
STARLINK-36254          
1 68338U 26059T   26157.64964828  .00038293  00000+0  11369-2 0  9994
2 68338  53.1588 290.2176 0001274  67.3115 292.8023 15.34450021 11861
STARLINK-37200          
1 68339U 26059U   26157.53436517  .00033414  00000+0  11342-2 0  9993
2 68339  53.1585 295.1928 0001073  74.0626 286.0493 15.30229005 11786
STARLINK-37185          
1 68340U 26059V   26156.11807890  .00035981  00000+0  10372-2 0  9997
2 68340  53.1608 297.7258 0000972  70.0509 290.0598 15.35409699 11629
STARLINK-37181          
1 68341U 26059W   26156.12637495  .00038576  00000+0  11469-2 0  9992
2 68341  53.1610 297.7762 0001221  84.8880 275.2262 15.34402958 11629
STARLINK-37192          
1 68342U 26059X   26156.11279156  .00021491  00000+0  62490-3 0  9997
2 68342  53.1604 297.7123 0000582  95.2881 264.8188 15.35417140 11621
STARLINK-37158          
1 68343U 26059Y   26157.51526561  .00047190  00000+0  13968-2 0  9997
2 68343  53.1602 291.5169 0001060  42.3551 317.7533 15.34450253 11837
STARLINK-36380          
1 68344U 26059Z   26156.12301093  .00031347  00000+0  10937-2 0  9995
2 68344  53.1594 302.7500 0001005  95.9906 264.1209 15.29366451 11553
STARLINK-37214          
1 68345U 26059AA  26157.64754629 -.00001940  00000+0 -46380-4 0  9992
2 68345  53.1594 290.2017 0001188  71.0532 289.0599 15.34348287 11865
STARLINK-37169          
1 68346U 26059AB  26157.63711925  .00030657  00000+0  91391-3 0  9990
2 68346  53.1604 290.8579 0003409  87.8016 272.3377 15.34426904 11858
STARLINK-37136          
1 68347U 26059AC  26157.53963698  .00027413  00000+0  93336-3 0  9993
2 68347  53.1584 295.2298 0001357 114.0140 246.1003 15.30231083 11789
STARLINK-37182          
1 68348U 26059AD  26156.90378265  .00014236  00000+0  43131-3 0  9991
2 68348  53.1605 294.0980 0001737  42.7383 317.3755 15.34426830 11748
STARLINK-37183          
1 68349U 26059AE  26157.53646260  .00035966  00000+0  12196-2 0  9994
2 68349  53.1607 295.2015 0001127  71.1621 288.9502 15.30225137 11787
STARLINK-36296          
1 68380U 26063A   26157.58337963 -.01246688  00000+0 -13499-1 0  9990
2 68380  97.2845 302.0600 0001323  53.1829 339.8774 15.66262254  6017
STARLINK-37111          
1 68381U 26063B   26157.64180806  .00027381  00000+0  84685-3 0  9991
2 68381  97.2889 299.9747 0001094 108.3392 251.7970 15.33465576 11523
STARLINK-36946          
1 68382U 26063C   26157.40797760  .00032587  00000+0  10070-2 0  9999
2 68382  97.2872 299.8346 0002416  71.2380 288.9125 15.33456808 11492
STARLINK-37121          
1 68383U 26063D   26157.64724406  .00035558  00000+0  10974-2 0  9997
2 68383  97.2853 299.9678 0001011 106.5239 253.6115 15.33478288 11524
STARLINK-37137          
1 68384U 26063E   26157.40525586  .00041053  00000+0  12651-2 0  9991
2 68384  97.2853 299.8333 0001167 109.0893 251.0477 15.33494937 11496
STARLINK-37128          
1 68385U 26063F   26156.90769343  .00040782  00000+0  12586-2 0  9992
2 68385  97.2863 299.2807 0000881 108.4194 251.7144 15.33449712 11418
STARLINK-37198          
1 68386U 26063G   26157.65270987  .00058444  00000+0  17975-2 0  9998
2 68386  97.2813 300.1075 0000979 104.1226 256.0125 15.33465594 11536
STARLINK-37223          
1 68387U 26063H   26156.90497473  .00051748  00000+0  15947-2 0  9994
2 68387  97.2859 299.2832 0000845 105.6032 254.5304 15.33435935 11414
STARLINK-37203          
1 68388U 26063J   26157.41069645  .00042682  00000+0  13156-2 0  9995
2 68388  97.2860 299.8252 0001163  97.8626 262.2749 15.33478750 11493
STARLINK-37197          
1 68389U 26063K   26157.66083745  .00014324  00000+0  44501-3 0  9991
2 68389  97.2868 300.1000 0000614 262.6643  97.4530 15.33456697 11537
STARLINK-37193          
1 68390U 26063L   26157.58337963 -.02522155  00000+0 -27967-1 0  9993
2 68390  97.2848 302.3562 0001403  58.2144 321.0463 15.66368894  6011
STARLINK-37216          
1 68391U 26063M   26157.63365294  .00040437  00000+0  12467-2 0  9992
2 68391  97.2884 299.9864 0001978  98.8902 261.2565 15.33482626 11521
STARLINK-37215          
1 68392U 26063N   26156.91041011  .00027292  00000+0  84429-3 0  9993
2 68392  97.2852 299.2812 0000638 142.8450 217.2837 15.33458239 11417
STARLINK-37184          
1 68393U 26063P   26157.35088330  .00051337  00000+0  15803-2 0  9994
2 68393  97.2866 299.7520 0001351  58.2422 301.8952 15.33474420 11481
STARLINK-37157          
1 68394U 26063Q   26157.39438179  .00035220  00000+0  10874-2 0  9995
2 68394  97.2853 299.8509 0000816  94.5352 265.5984 15.33468792 11493
