OBJECT_NAME,OBJECT_ID,EPOCH,MEAN_MOTION,ECCENTRICITY,INCLINATION,RA_OF_ASC_NODE,ARG_OF_PERICENTER,MEAN_ANOMALY,EPHEMERIS_TYPE,CLASSIFICATION_TYPE,NORAD_CAT_ID,ELEMENT_SET_NO,REV_AT_EPOCH,BSTAR,MEAN_MOTION_DOT,MEAN_MOTION_DDOT
STARLINK-37217,2026-059Q,2026-06-06T13:08:47.293440,15.49338437,.00009535,53.1574,289.5850,89.4696,270.6422,0,U,68335,999,1186,.1321334E-2,.73813E-3,0
STARLINK-37143,2026-059R,2026-06-06T15:19:45.849504,15.30237317,.00020531,53.1598,295.1428,80.8525,279.2708,0,U,68336,999,1179,.11496101E-2,.33884E-3,0
STARLINK-36237,2026-059S,2026-06-02T16:36:51.325344,15.36011178,.0001646,53.1601,308.8895,302.4182,57.6662,0,U,68337,999,1125,.12413849E-2,.44033E-3,0
STARLINK-36254,2026-059T,2026-06-06T15:35:29.611392,15.34450021,.00012743,53.1588,290.2176,67.3115,292.8023,0,U,68338,999,1186,.11368947E-2,.38293E-3,0
STARLINK-37200,2026-059U,2026-06-06T12:49:29.150688,15.30229005,.00010731,53.1585,295.1928,74.0626,286.0493,0,U,68339,999,1178,.11341927E-2,.33414E-3,0
STARLINK-37185,2026-059V,2026-06-05T02:50:02.016960,15.35409699,.00009726,53.1608,297.7258,70.0509,290.0598,0,U,68340,999,1162,.10371627E-2,.35981E-3,0
STARLINK-37181,2026-059W,2026-06-05T03:01:58.795680,15.34402958,.00012218,53.1610,297.7762,84.8880,275.2262,0,U,68341,999,1162,.1146877E-2,.38576E-3,0
STARLINK-37192,2026-059X,2026-06-05T02:42:25.190784,15.35417140,.00005826,53.1604,297.7123,95.2881,264.8188,0,U,68342,999,1162,.62489933E-3,.21491E-3,0
STARLINK-37158,2026-059Y,2026-06-06T12:21:58.948704,15.34450253,.00010605,53.1602,291.5169,42.3551,317.7533,0,U,68343,999,1183,.13968153E-2,.4719E-3,0
STARLINK-36380,2026-059Z,2026-06-05T02:57:08.144352,15.29366451,.00010053,53.1594,302.7500,95.9906,264.1209,0,U,68344,999,1155,.10937005E-2,.31347E-3,0
STARLINK-37214,2026-059AA,2026-06-06T15:32:27.999456,15.34348287,.00011884,53.1594,290.2017,71.0532,289.0599,0,U,68345,999,1186,-.46380355E-4,-.194E-4,0
STARLINK-37169,2026-059AB,2026-06-06T15:17:27.103200,15.34426904,.00034098,53.1604,290.8579,87.8016,272.3377,0,U,68346,999,1185,.91391312E-3,.30657E-3,0
STARLINK-37136,2026-059AC,2026-06-06T12:57:04.635072,15.30231083,.00013571,53.1584,295.2298,114.0140,246.1003,0,U,68347,999,1178,.93335839E-3,.27413E-3,0
STARLINK-37182,2026-059AD,2026-06-05T21:41:26.820960,15.34426830,.00017376,53.1605,294.0980,42.7383,317.3755,0,U,68348,999,1174,.43131282E-3,.14236E-3,0
STARLINK-37183,2026-059AE,2026-06-06T12:52:30.368640,15.30225137,.00011273,53.1607,295.2015,71.1621,288.9502,0,U,68349,999,1178,.12196384E-2,.35966E-3,0
STARLINK-36296,2026-063A,2026-06-06T14:00:04.000032,15.66262254,.00013235,97.2845,302.0600,53.1829,339.8774,0,U,68380,999,601,-.1349892E-1,-.1246688E-1,0
STARLINK-37111,2026-063B,2026-06-06T15:24:12.216384,15.33465576,.00010941,97.2889,299.9747,108.3392,251.7970,0,U,68381,999,1152,.84684752E-3,.27381E-3,0
STARLINK-36946,2026-063C,2026-06-06T09:47:29.264640,15.33456808,.00024168,97.2872,299.8346,71.2380,288.9125,0,U,68382,999,1149,.10069507E-2,.32587E-3,0
STARLINK-37121,2026-063D,2026-06-06T15:32:01.886784,15.33478288,.00010119,97.2853,299.9678,106.5239,253.6115,0,U,68383,999,1152,.10974275E-2,.35558E-3,0
STARLINK-37137,2026-063E,2026-06-06T09:43:34.106304,15.33494937,.00011675,97.2853,299.8333,109.0893,251.0477,0,U,68384,999,1149,.1265056E-2,.41053E-3,0
STARLINK-37128,2026-063F,2026-06-05T21:47:04.712352,15.33449712,.00008814,97.2863,299.2807,108.4194,251.7144,0,U,68385,999,1141,.12585645E-2,.40782E-3,0
STARLINK-37198,2026-063G,2026-06-06T15:39:54.132768,15.33465594,.00009792,97.2813,300.1075,104.1226,256.0125,0,U,68386,999,1153,.17975219E-2,.58444E-3,0
STARLINK-37223,2026-063H,2026-06-05T21:43:09.816672,15.33435935,.00008451,97.2859,299.2832,105.6032,254.5304,0,U,68387,999,1141,.15947404E-2,.51748E-3,0
STARLINK-37203,2026-063J,2026-06-06T09:51:24.173280,15.33478750,.00011633,97.2860,299.8252,97.8626,262.2749,0,U,68388,999,1149,.13155622E-2,.42682E-3,0
STARLINK-37197,2026-063K,2026-06-06T15:51:36.355680,15.33456697,.00006142,97.2868,300.1000,262.6643,97.4530,0,U,68389,999,1153,.44500695E-3,.14324E-3,0
STARLINK-37193,2026-063L,2026-06-06T14:00:04.000032,15.66368894,.0001403,97.2848,302.3562,58.2144,321.0463,0,U,68390,999,601,-.27966953E-1,-.2522155E-1,0
STARLINK-37216,2026-063M,2026-06-06T15:12:27.614016,15.33482626,.00019781,97.2884,299.9864,98.8902,261.2565,0,U,68391,999,1152,.12466645E-2,.40437E-3,0
STARLINK-37215,2026-063N,2026-06-05T21:50:59.433504,15.33458239,.00006385,97.2852,299.2812,142.8450,217.2837,0,U,68392,999,1141,.84429417E-3,.27292E-3,0
STARLINK-37184,2026-063P,2026-06-06T08:25:16.317120,15.33474420,.00013516,97.2866,299.7520,58.2422,301.8952,0,U,68393,999,1148,.15802609E-2,.51337E-3,0
STARLINK-37157,2026-063Q,2026-06-06T09:27:54.586656,15.33468792,.00008162,97.2853,299.8509,94.5352,265.5984,0,U,68394,999,1149,.10873816E-2,.3522E-3,0
